{
  "type": "FeatureCollection",
  "features": [
    {
      "type": "Feature",
      "properties": {
        "norad_id": 24946,
        "name": "IRIDIUM 33",
        "group": "iridium-33-debris",
        "lat": -85.90908046297434,
        "lon": 7.531944164566966,
        "alt_km": 779.9872652432759,
        "timestamp": "2025-12-09T11:33:55.185467+00:00",
        "meta_object_name": "IRIDIUM 33",
        "meta_object_id": "1997-051C",
        "meta_epoch": "2025-12-08T19:14:25.821600",
        "meta_mean_motion": 14.35033415,
        "meta_eccentricity": 0.00065999,
        "meta_inclination": 86.387,
        "meta_ra_of_asc_node": 69.8745,
        "meta_arg_of_pericenter": 215.0125,
        "meta_mean_anomaly": 145.0639,
        "meta_ephemeris_type": 0,
        "meta_classification_type": "U",
        "meta_norad_cat_id": 24946,
        "meta_element_set_no": 999,
        "meta_rev_at_epoch": 47778,
        "meta_bstar": 0.00023498518,
        "meta_mean_motion_dot": 6.89e-06,
        "meta_mean_motion_ddot": 0,
        "tle_line1": "1 24946U 97051C   25342.80168775  .00000689  00000+0  23499-3 0  9997",
        "tle_line2": "2 24946  86.3870  69.8745 0006599 215.0125 145.0639 14.35033415477783"
      },
      "geometry": {
        "type": "Point",
        "coordinates": [
          7.531944164566966,
          -85.90908046297434
        ]
      }
    },
    {
      "type": "Feature",
      "properties": {
        "norad_id": 33773,
        "name": "IRIDIUM 33 DEB",
        "group": "iridium-33-debris",
        "lat": 47.23099950005815,
        "lon": -121.93088891796022,
        "alt_km": 735.7652726810475,
        "timestamp": "2025-12-09T11:33:55.185512+00:00",
        "meta_object_name": "IRIDIUM 33 DEB",
        "meta_object_id": "1997-051L",
        "meta_epoch": "2025-12-09T04:17:49.896672",
        "meta_mean_motion": 14.43243898,
        "meta_eccentricity": 0.0012139,
        "meta_inclination": 86.4015,
        "meta_ra_of_asc_node": 62.0983,
        "meta_arg_of_pericenter": 156.9799,
        "meta_mean_anomaly": 203.1949,
        "meta_ephemeris_type": 0,
        "meta_classification_type": "U",
        "meta_norad_cat_id": 33773,
        "meta_element_set_no": 999,
        "meta_rev_at_epoch": 88296,
        "meta_bstar": 0.00046736,
        "meta_mean_motion_dot": 1.593e-05,
        "meta_mean_motion_ddot": 0,
        "tle_line1": "1 33773U 97051L   25343.17904973  .00001593  00000+0  46736-3 0  9998",
        "tle_line2": "2 33773  86.4015  62.0983 0012139 156.9799 203.1949 14.43243898882966"
      },
      "geometry": {
        "type": "Point",
        "coordinates": [
          -121.93088891796022,
          47.23099950005815
        ]
      }
    },
    {
      "type": "Feature",
      "properties": {
        "norad_id": 33775,
        "name": "IRIDIUM 33 DEB",
        "group": "iridium-33-debris",
        "lat": -57.11536302659718,
        "lon": -123.41154072093892,
        "alt_km": 757.8780642404445,
        "timestamp": "2025-12-09T11:33:55.185528+00:00",
        "meta_object_name": "IRIDIUM 33 DEB",
        "meta_object_id": "1997-051N",
        "meta_epoch": "2025-12-09T03:56:22.236864",
        "meta_mean_motion": 14.41455547,
        "meta_eccentricity": 0.0013884,
        "meta_inclination": 86.364,
        "meta_ra_of_asc_node": 51.08,
        "meta_arg_of_pericenter": 165.7314,
        "meta_mean_anomaly": 223.5474,
        "meta_ephemeris_type": 0,
        "meta_classification_type": "U",
        "meta_norad_cat_id": 33775,
        "meta_element_set_no": 999,
        "meta_rev_at_epoch": 88089,
        "meta_bstar": 0.0004954,
        "meta_mean_motion_dot": 1.628e-05,
        "meta_mean_motion_ddot": 0,
        "tle_line1": "1 33775U 97051N   25343.16414626  .00001628  00000+0  49540-3 0  9995",
        "tle_line2": "2 33775  86.3640  51.0800 0013884 165.7314 223.5474 14.41455547880899"
      },
      "geometry": {
        "type": "Point",
        "coordinates": [
          -123.41154072093892,
          -57.11536302659718
        ]
      }
    },
    {
      "type": "Feature",
      "properties": {
        "norad_id": 33776,
        "name": "IRIDIUM 33 DEB",
        "group": "iridium-33-debris",
        "lat": 35.326373620037664,
        "lon": -100.41072218093188,
        "alt_km": 756.6552434555206,
        "timestamp": "2025-12-09T11:33:55.185541+00:00",
        "meta_object_name": "IRIDIUM 33 DEB",
        "meta_object_id": "1997-051P",
        "meta_epoch": "2025-12-08T20:25:17.631264",
        "meta_mean_motion": 14.38225708,
        "meta_eccentricity": 0.00138791,
        "meta_inclination": 86.4038,
        "meta_ra_of_asc_node": 82.4088,
        "meta_arg_of_pericenter": 203.6045,
        "meta_mean_anomaly": 276.0774,
        "meta_ephemeris_type": 0,
        "meta_classification_type": "U",
        "meta_norad_cat_id": 33776,
        "meta_element_set_no": 999,
        "meta_rev_at_epoch": 88026,
        "meta_bstar": 0.00064814674,
        "meta_mean_motion_dot": 1.989e-05,
        "meta_mean_motion_ddot": 0,
        "tle_line1": "1 33776U 97051P   25342.85089851  .00001989  00000+0  64815-3 0  9991",
        "tle_line2": "2 33776  86.4038  82.4088 0013879 203.6045 276.0774 14.38225708880262"
      },
      "geometry": {
        "type": "Point",
        "coordinates": [
          -100.41072218093188,
          35.326373620037664
        ]
      }
    },
    {
      "type": "Feature",
      "properties": {
        "norad_id": 33777,
        "name": "IRIDIUM 33 DEB",
        "group": "iridium-33-debris",
        "lat": 86.22919850612155,
        "lon": 110.5627461633952,
        "alt_km": 703.6146182888742,
        "timestamp": "2025-12-09T11:33:55.185554+00:00",
        "meta_object_name": "IRIDIUM 33 DEB",
        "meta_object_id": "1997-051Q",
        "meta_epoch": "2025-12-09T04:33:29.869056",
        "meta_mean_motion": 14.55571675,
        "meta_eccentricity": 0.0005077,
        "meta_inclination": 86.3783,
        "meta_ra_of_asc_node": 36.7474,
        "meta_arg_of_pericenter": 265.7419,
        "meta_mean_anomaly": 94.3208,
        "meta_ephemeris_type": 0,
        "meta_classification_type": "U",
        "meta_norad_cat_id": 33777,
        "meta_element_set_no": 999,
        "meta_rev_at_epoch": 88482,
        "meta_bstar": 0.0010986,
        "meta_mean_motion_dot": 4.809e-05,
        "meta_mean_motion_ddot": 0,
        "tle_line1": "1 33777U 97051Q   25343.18992904  .00004809  00000+0  10986-2 0  9994",
        "tle_line2": "2 33777  86.3783  36.7474 0005077 265.7419  94.3208 14.55571675884820"
      },
      "geometry": {
        "type": "Point",
        "coordinates": [
          110.5627461633952,
          86.22919850612155
        ]
      }
    },
    {
      "type": "Feature",
      "properties": {
        "norad_id": 33850,
        "name": "IRIDIUM 33 DEB",
        "group": "iridium-33-debris",
        "lat": -30.15991003930623,
        "lon": -146.2890231716984,
        "alt_km": 750.9342900051988,
        "timestamp": "2025-12-09T11:33:55.185567+00:00",
        "meta_object_name": "IRIDIUM 33 DEB",
        "meta_object_id": "1997-051T",
        "meta_epoch": "2025-12-09T04:12:04.721760",
        "meta_mean_motion": 14.42134483,
        "meta_eccentricity": 0.0011843,
        "meta_inclination": 86.342,
        "meta_ra_of_asc_node": 31.7125,
        "meta_arg_of_pericenter": 172.0555,
        "meta_mean_anomaly": 246.0053,
        "meta_ephemeris_type": 0,
        "meta_classification_type": "U",
        "meta_norad_cat_id": 33850,
        "meta_element_set_no": 999,
        "meta_rev_at_epoch": 88101,
        "meta_bstar": 0.00048336,
        "meta_mean_motion_dot": 1.61e-05,
        "meta_mean_motion_ddot": 0,
        "tle_line1": "1 33850U 97051T   25343.17505465  .00001610  00000+0  48336-3 0  9995",
        "tle_line2": "2 33850  86.3420  31.7125 0011843 172.0555 246.0053 14.42134483881017"
      },
      "geometry": {
        "type": "Point",
        "coordinates": [
          -146.2890231716984,
          -30.15991003930623
        ]
      }
    },
    {
      "type": "Feature",
      "properties": {
        "norad_id": 33853,
        "name": "IRIDIUM 33 DEB",
        "group": "iridium-33-debris",
        "lat": 19.32902444116331,
        "lon": -7.353715640318587,
        "alt_km": 999.4757112898724,
        "timestamp": "2025-12-09T11:33:55.185579+00:00",
        "meta_object_name": "IRIDIUM 33 DEB",
        "meta_object_id": "1997-051W",
        "meta_epoch": "2025-12-09T01:26:49.532928",
        "meta_mean_motion": 13.990264,
        "meta_eccentricity": 0.0206959,
        "meta_inclination": 85.9998,
        "meta_ra_of_asc_node": 351.4246,
        "meta_arg_of_pericenter": 247.2093,
        "meta_mean_anomaly": 168.4771,
        "meta_ephemeris_type": 0,
        "meta_classification_type": "U",
        "meta_norad_cat_id": 33853,
        "meta_element_set_no": 999,
        "meta_rev_at_epoch": 85294,
        "meta_bstar": 0.0024496,
        "meta_mean_motion_dot": 4.27e-05,
        "meta_mean_motion_ddot": 0,
        "tle_line1": "1 33853U 97051W   25343.06029552  .00004270  00000+0  24496-2 0  9999",
        "tle_line2": "2 33853  85.9998 351.4246 0206959 247.2093 168.4771 13.99026400852941"
      },
      "geometry": {
        "type": "Point",
        "coordinates": [
          -7.353715640318587,
          19.32902444116331
        ]
      }
    }
  ]
}